{"type": "FeatureCollection", "features": [ {"type": "Feature", "properties": {"norad_id": 34571, "name": "COSMOS 2251 DEB", "group": "cosmos-2251-debris", "lat": -11.429783370714203, "lon": -8.75464422350895, "alt_km": 687.2616633137686, "timestamp": "2025-12-20T11:30:28.770686+00:00", "meta": {"OBJECT_NAME": "COSMOS 2251 DEB", "OBJECT_ID": "1993-036VH", "EPOCH": "2025-12-18T22:10:04.528128", "MEAN_MOTION": 14.48905766, "ECCENTRICITY": 0.0065409, "INCLINATION": 74.0384, "RA_OF_ASC_NODE": 170.8432, "ARG_OF_PERICENTER": 204.4185, "MEAN_ANOMALY": 155.3874, "EPHEMERIS_TYPE": 0, "CLASSIFICATION_TYPE": "U", "NORAD_CAT_ID": 34571, "ELEMENT_SET_NO": 999, "REV_AT_EPOCH": 87383, "BSTAR": 0.0018317465, "MEAN_MOTION_DOT": 7.102e-05, "MEAN_MOTION_DDOT": 0}, "tle": {"line1": "1 34571U 93036VH  25352.92366352  .00007102  00000+0  18317-2 0  9995", "line2": "2 34571  74.0384 170.8432 0065409 204.4185 155.3874 14.48905766873833"}}, "geometry": {"type": "Point", "coordinates": [-8.75464422350895, -11.429783370714203]}}, {"type": "Feature", "properties": {"norad_id": 34572, "name": "COSMOS 2251 DEB", "group": "cosmos-2251-debris", "lat": 73.83527393658801, "lon": -177.48912166604129, "alt_km": 714.2066134568595, "timestamp": "2025-12-20T11:30:28.770696+00:00", "meta": {"OBJECT_NAME": "COSMOS 2251 DEB", "OBJECT_ID": "1993-036VJ", "EPOCH": "2025-12-19T08:52:33.083040", "MEAN_MOTION": 14.50137544, "ECCENTRICITY": 0.0061983, "INCLINATION": 74.0111, "RA_OF_ASC_NODE": 103.0332, "ARG_OF_PERICENTER": 175.7717, "MEAN_ANOMALY": 241.8877, "EPHEMERIS_TYPE": 0, "CLASSIFICATION_TYPE": "U", "NORAD_CAT_ID": 34572, "ELEMENT_SET_NO": 999, "REV_AT_EPOCH": 87474, "BSTAR": 0.0016719, "MEAN_MOTION_DOT": 6.633e-05, "MEAN_MOTION_DDOT": 0}, "tle": {"line1": "1 34572U 93036VJ  25353.36982735  .00006633  00000+0  16719-2 0  9996", "line2": "2 34572  74.0111 103.0332 0061983 175.7717 241.8877 14.50137544874742"}}, "geometry": {"type": "Point", "coordinates": [-177.48912166604129, 73.83527393658801]}}, {"type": "Feature", "properties": {"norad_id": 34574, "name": "COSMOS 2251 DEB", "group": "cosmos-2251-debris", "lat": -8.079954270638732, "lon": -149.53581013725955, "alt_km": 699.4060098752107, "timestamp": "2025-12-20T11:30:28.770707+00:00", "meta": {"OBJECT_NAME": "COSMOS 2251 DEB", "OBJECT_ID": "1993-036VL", "EPOCH": "2025-12-20T04:25:37.603200", "MEAN_MOTION": 14.70677211, "ECCENTRICITY": 0.0067108, "INCLINATION": 74.0681, "RA_OF_ASC_NODE": 28.7114, "ARG_OF_PERICENTER": 47.3992, "MEAN_ANOMALY": 19.0044, "EPHEMERIS_TYPE": 0, "CLASSIFICATION_TYPE": "U", "NORAD_CAT_ID": 34574, "ELEMENT_SET_NO": 999, "REV_AT_EPOCH": 88888, "BSTAR": 0.0005534, "MEAN_MOTION_DOT": 3.459e-05, "MEAN_MOTION_DDOT": 0}, "tle": {"line1": "1 34574U 93036VL  25354.18446300  .00003459  00000+0  55340-3 0  9999", "line2": "2 34574  74.0681  28.7114 0067108  47.3992  19.0044 14.70677211888884"}}, "geometry": {"type": "Point", "coordinates": [-149.53581013725955, -8.079954270638732]}}, {"type": "Feature", "properties": {"norad_id": 34576, "name": "COSMOS 2251 DEB", "group": "cosmos-2251-debris", "lat": 73.43002323142346, "lon": -130.6553203125286, "alt_km": 706.0961724147637, "timestamp": "2025-12-20T11:30:28.770717+00:00", "meta": {"OBJECT_NAME": "COSMOS 2251 DEB", "OBJECT_ID": "1993-036VN", "EPOCH": "2025-12-19T15:21:26.249760", "MEAN_MOTION": 14.55469677, "ECCENTRICITY": 0.0008223, "INCLINATION": 74.0343, "RA_OF_ASC_NODE": 125.1243, "ARG_OF_PERICENTER": 262.3221, "MEAN_ANOMALY": 114.6335, "EPHEMERIS_TYPE": 0, "CLASSIFICATION_TYPE": "U", "NORAD_CAT_ID": 34576, "ELEMENT_SET_NO": 999, "REV_AT_EPOCH": 88567, "BSTAR": 0.00058339, "MEAN_MOTION_DOT": 2.511e-05, "MEAN_MOTION_DDOT": 0}, "tle": {"line1": "1 34576U 93036VN  25353.63988715  .00002511  00000+0  58339-3 0  9990", "line2": "2 34576  74.0343 125.1243 0008223 262.3221 114.6335 14.55469677885670"}}, "geometry": {"type": "Point", "coordinates": [-130.6553203125286, 73.43002323142346]}}, {"type": "Feature", "properties": {"norad_id": 34579, "name": "COSMOS 2251 DEB", "group": "cosmos-2251-debris", "lat": 29.391719984043714, "lon": -141.24692726747224, "alt_km": 747.0421282808165, "timestamp": "2025-12-20T11:30:28.770727+00:00", "meta": {"OBJECT_NAME": "COSMOS 2251 DEB", "OBJECT_ID": "1993-036VR", "EPOCH": "2025-12-20T00:19:30.840096", "MEAN_MOTION": 14.45326726, "ECCENTRICITY": 0.0027533, "INCLINATION": 74.0517, "RA_OF_ASC_NODE": 210.3511, "ARG_OF_PERICENTER": 277.9153, "MEAN_ANOMALY": 209.157, "EPHEMERIS_TYPE": 0, "CLASSIFICATION_TYPE": "U", "NORAD_CAT_ID": 34579, "ELEMENT_SET_NO": 999, "REV_AT_EPOCH": 88279, "BSTAR": 0.0002639, "MEAN_MOTION_DOT": 9.04e-06, "MEAN_MOTION_DDOT": 0}, "tle": {"line1": "1 34579U 93036VR  25354.01355139  .00000904  00000+0  26390-3 0  9990", "line2": "2 34579  74.0517 210.3511 0027533 277.9153 209.1570 14.45326726882799"}}, "geometry": {"type": "Point", "coordinates": [-141.24692726747224, 29.391719984043714]}}, {"type": "Feature", "properties": {"norad_id": 34582, "name": "COSMOS 2251 DEB", "group": "cosmos-2251-debris", "lat": -73.7000059146467, "lon": 179.48126383043055, "alt_km": 756.1247846410661, "timestamp": "2025-12-20T11:30:28.770737+00:00", "meta": {"OBJECT_NAME": "COSMOS 2251 DEB", "OBJECT_ID": "1993-036VU", "EPOCH": "2025-12-20T03:35:24.025632", "MEAN_MOTION": 14.43360763, "ECCENTRICITY": 0.0048271, "INCLINATION": 74.0201, "RA_OF_ASC_NODE": 258.5968, "ARG_OF_PERICENTER": 7.1038, "MEAN_ANOMALY": 353.0791, "EPHEMERIS_TYPE": 0, "CLASSIFICATION_TYPE": "U", "NORAD_CAT_ID": 34582, "ELEMENT_SET_NO": 999, "REV_AT_EPOCH": 88054, "BSTAR": 0.0005271, "MEAN_MOTION_DOT": 1.776e-05, "MEAN_MOTION_DDOT": 0}, "tle": {"line1": "1 34582U 93036VU  25354.14958363  .00001776  00000+0  52710-3 0  9999", "line2": "2 34582  74.0201 258.5968 0048271   7.1038 353.0791 14.43360763880542"}}, "geometry": {"type": "Point", "coordinates": [179.48126383043055, -73.7000059146467]}}, {"type": "Feature", "properties": {"norad_id": 34588, "name": "COSMOS 2251 DEB", "group": "cosmos-2251-debris", "lat": -63.05670254710792, "lon": -140.3440128106788, "alt_km": 745.2407237897278, "timestamp": "2025-12-20T11:30:28.770747+00:00", "meta": {"OBJECT_NAME": "COSMOS 2251 DEB", "OBJECT_ID": "1993-036WA", "EPOCH": "2025-12-20T04:02:10.435776", "MEAN_MOTION": 14.42041943, "ECCENTRICITY": 0.0019279, "INCLINATION": 74.0429, "RA_OF_ASC_NODE": 254.4907, "ARG_OF_PERICENTER": 306.4154, "MEAN_ANOMALY": 170.1426, "EPHEMERIS_TYPE": 0, "CLASSIFICATION_TYPE": "U", "NORAD_CAT_ID": 34588, "ELEMENT_SET_NO": 999, "REV_AT_EPOCH": 88057, "BSTAR": 0.00029792, "MEAN_MOTION_DOT": 9.54e-06, "MEAN_MOTION_DDOT": 0}, "tle": {"line1": "1 34588U 93036WA  25354.16817634  .00000954  00000+0  29792-3 0  9993", "line2": "2 34588  74.0429 254.4907 0019279 306.4154 170.1426 14.42041943880579"}}, "geometry": {"type": "Point", "coordinates": [-140.3440128106788, -63.05670254710792]}}, {"type": "Feature", "properties": {"norad_id": 34589, "name": "COSMOS 2251 DEB", "group": "cosmos-2251-debris", "lat": 18.079177303286638, "lon": 48.24529289606745, "alt_km": 788.4935516121459, "timestamp": "2025-12-20T11:30:28.770757+00:00", "meta": {"OBJECT_NAME": "COSMOS 2251 DEB", "OBJECT_ID": "1993-036WB", "EPOCH": "2025-12-19T13:38:04.639200", "MEAN_MOTION": 13.86059262, "ECCENTRICITY": 0.0252128, "INCLINATION": 73.925, "RA_OF_ASC_NODE": 44.3965, "ARG_OF_PERICENTER": 346.3595, "MEAN_ANOMALY": 165.0467, "EPHEMERIS_TYPE": 0, "CLASSIFICATION_TYPE": "U", "NORAD_CAT_ID": 34589, "ELEMENT_SET_NO": 999, "REV_AT_EPOCH": 84806, "BSTAR": 0.00027367, "MEAN_MOTION_DOT": 3.8e-06, "MEAN_MOTION_DDOT": 0}, "tle": {"line1": "1 34589U 93036WB  25353.56810925  .00000380  00000+0  27367-3 0  9992", "line2": "2 34589  73.9250  44.3965 0252128 346.3595 165.0467 13.86059262848060"}}, "geometry": {"type": "Point", "coordinates": [48.24529289606745, 18.079177303286638]}}, {"type": "Feature", "properties": {"norad_id": 34590, "name": "COSMOS 2251 DEB", "group": "cosmos-2251-debris", "lat": 59.09407086481907, "lon": 99.35980165974814, "alt_km": 667.5743206878942, "timestamp": "2025-12-20T11:30:28.770767+00:00", "meta": {"OBJECT_NAME": "COSMOS 2251 DEB", "OBJECT_ID": "1993-036WC", "EPOCH": "2025-12-19T05:33:46.179072", "MEAN_MOTION": 14.5483298, "ECCENTRICITY": 0.0067997, "INCLINATION": 74.0441, "RA_OF_ASC_NODE": 310.2692, "ARG_OF_PERICENTER": 77.9732, "MEAN_ANOMALY": 346.1753, "EPHEMERIS_TYPE": 0, "CLASSIFICATION_TYPE": "U", "NORAD_CAT_ID": 34590, "ELEMENT_SET_NO": 999, "REV_AT_EPOCH": 89215, "BSTAR": 0.00010011, "MEAN_MOTION_DOT": 4.13e-06, "MEAN_MOTION_DDOT": 0}, "tle": {"line1": "1 34590U 93036WC  25353.23178448  .00000413  00000+0  10011-3 0  9990", "line2": "2 34590  74.0441 310.2692 0067997  77.9732 346.1753 14.54832980892157"}}, "geometry": {"type": "Point", "coordinates": [99.35980165974814, 59.09407086481907]}}, {"type": "Feature", "properties": {"norad_id": 34609, "name": "COSMOS 2251 DEB", "group": "cosmos-2251-debris", "lat": 45.73205642946919, "lon": 110.00569984394892, "alt_km": 826.96037047561, "timestamp": "2025-12-20T11:30:28.770777+00:00", "meta": {"OBJECT_NAME": "COSMOS 2251 DEB", "OBJECT_ID": "1993-036WE", "EPOCH": "2025-12-20T00:00:03.081024", "MEAN_MOTION": 14.21815971, "ECCENTRICITY": 0.0145546, "INCLINATION": 73.7338, "RA_OF_ASC_NODE": 93.4526, "ARG_OF_PERICENTER": 311.81, "MEAN_ANOMALY": 161.6446, "EPHEMERIS_TYPE": 0, "CLASSIFICATION_TYPE": "U", "NORAD_CAT_ID": 34609, "ELEMENT_SET_NO": 999, "REV_AT_EPOCH": 86735, "BSTAR": 0.00053132, "MEAN_MOTION_DOT": 1.274e-05, "MEAN_MOTION_DDOT": 0}, "tle": {"line1": "1 34609U 93036WE  25354.00003566  .00001274  00000+0  53132-3 0  9992", "line2": "2 34609  73.7338  93.4526 0145546 311.8100 161.6446 14.21815971867359"}}, "geometry": {"type": "Point", "coordinates": [110.00569984394892, 45.73205642946919]}}]}